GPS BIIR-2  (PRN 13)    
1 24876U 97035A   25147.79833205  .00000010  00000+0  00000+0 0  9996
2 24876  55.8018 113.6515 0090326  53.9293 306.8595  2.00562423204027
GPS BIIR-4  (PRN 20)    
1 26360U 00025A   25146.95384049 -.00000085  00000+0  00000+0 0  9996
2 26360  54.9211  34.9162 0036435 232.8648 325.5322  2.00551525183526
GPS BIIR-5  (PRN 22)    
1 26407U 00040A   25147.85173337  .00000025  00000+0  00000+0 0  9994
2 26407  54.9433 230.4737 0133282 298.6048  28.9846  2.00565516182212
GPS BIIR-8  (PRN 16)    
1 27663U 03005A   25147.21946551  .00000028  00000+0  00000+0 0  9992
2 27663  54.9785 230.3087 0142639  50.1810 319.4703  2.00555297163571
GPS BIIR-11 (PRN 19)    
1 28190U 04009A   25147.43438447 -.00000056  00000+0  00000+0 0  9999
2 28190  55.1565 291.2431 0105015 160.2805 162.5777  2.00567926155200
GPS BIIR-13 (PRN 02)    
1 28474U 04045A   25147.83285744 -.00000088  00000+0  00000+0 0  9993
2 28474  55.3302 340.3953 0165874 303.3509   7.5304  2.00560458150696
GPS BIIRM-1 (PRN 17)    
1 28874U 05038A   25147.44244759 -.00000053  00000+0  00000+0 0  9990
2 28874  55.2010 288.7160 0132437 290.0664  63.6146  2.00561585144099
INMARSAT 4-F2 (SOUTHPA*)
1 28899U 05044A   25148.54330525 -.00000264  00000+0  00000+0 0  9997
2 28899   4.5997  43.4306 0002398  26.8340 155.1337  1.00270887 71643
GPS BIIRM-2 (PRN 31)    
1 29486U 06042A   25147.83369642  .00000066  00000+0  00000+0 0  9991
2 29486  54.6835 166.6286 0103919  46.1520 130.9286  2.00563821136666
GPS BIIRM-3 (PRN 12)    
1 29601U 06052A   25146.52168420  .00000031  00000+0  00000+0 0  9999
2 29601  55.0197 229.3403 0085750  86.3340 274.7071  2.00562046135652
GPS BIIRM-4 (PRN 15)    
1 32260U 07047A   25146.82920758 -.00000019  00000+0  00000+0 0  9999
2 32260  53.8160  96.0206 0160496  81.1429 280.6261  2.00573322129069
COSMOS 2433 (720)       
1 32275U 07052A   25148.12401002 -.00000057  00000+0  00000+0 0  9994
2 32275  65.7863 328.8647 0001405 195.2174 164.7816  2.13104040136898
COSMOS 2432 (719)       
1 32276U 07052B   25145.96182178 -.00000047  00000+0  00000+0 0  9993
2 32276  65.8028 329.0573 0008573 336.6882 109.7210  2.13103096136846
GPS BIIRM-5 (PRN 29)    
1 32384U 07062A   25147.11005000 -.00000054  00000+0  00000+0 0  9999
2 32384  55.3484 289.6445 0031806 156.5785 175.5608  2.00566822127760
COSMOS 2434 (721)       
1 32393U 07065A   25147.82603772  .00000064  00000+0  00000+0 0  9990
2 32393  64.3144 204.9175 0000651  29.7115 353.1445  2.13101346135565
COSMOS 2436 (723)       
1 32395U 07065C   25147.91638229  .00000062  00000+0  00000+0 0  9995
2 32395  64.3229 204.9826 0016584 355.3879 230.7269  2.13100223135502
GPS BIIRM-6 (PRN 07)    
1 32711U 08012A   25147.73943194  .00000067  00000+0  00000+0 0  9995
2 32711  54.4622 165.3129 0198958 243.0941 114.9016  2.00557954126029
GPS BIIRM-8 (PRN 05)    
1 35752U 09043A   25146.74810937 -.00000080  00000+0  00000+0 0  9992
2 35752  55.9479  42.6689 0055338  77.4877 299.0303  2.00576695115612
COSMOS 2456 (730)       
1 36111U 09070A   25147.38027269 -.00000024  00000+0  00000+0 0  9999
2 36111  64.7874  84.1564 0005440 319.9410 236.7225  2.13103623120201
COSMOS 2457 (733)       
1 36112U 09070B   25148.52533561 -.00000020  00000+0  00000+0 0  9990
2 36112  64.7729  83.9686 0002096 153.3867 332.7007  2.13101113120277
COSMOS 2460 (732)       
1 36402U 10007C   25147.43098248 -.00000055  00000+0  00000+0 0  9999
2 36402  65.6364 327.4920 0002116  82.2437 280.8286  2.13106144118512
GPS BIIF-1  (PRN 25)    
1 36585U 10022A   25147.02826181  .00000038  00000+0  00000+0 0  9998
2 36585  54.3425 224.1240 0120638  64.0467 276.3371  2.00568738109844
BEIDOU-2 IGSO-1 (C06)   
1 36828U 10036A   25147.76473772 -.00000053  00000+0  00000+0 0  9996
2 36828  54.2723 166.4448 0049600 217.7576 243.8448  1.00283029 54231
BEIDOU-2 G4 (C04)       
1 37210U 10057A   25147.83265387 -.00000112  00000+0  00000+0 0  9990
2 37210   2.6917  70.4654 0004707 192.6630  82.2654  1.00271640 53423
BEIDOU-2 IGSO-2 (C07)   
1 37256U 10068A   25147.10398281 -.00000227  00000+0  00000+0 0  9999
2 37256  48.2473 276.6090 0045977 212.0999 258.8566  1.00296258 52928
BEIDOU-2 IGSO-3 (C08)   
1 37384U 11013A   25148.46593834 -.00000209  00000+0  00000+0 0  9993
2 37384  61.8588  43.7956 0029958 177.9002 300.6931  1.00270854 51797
GSAT-8 (GAGAN/PRN 127)  
1 37605U 11022A   25147.94679326  .00000085  00000+0  00000+0 0  9993
2 37605   1.1356  86.7531 0003273 213.5138 341.3992  1.00273662 49356
BEIDOU-2 IGSO-4 (C09)   
1 37763U 11038A   25147.85886771  .00000023  00000+0  00000+0 0  9991
2 37763  54.5749 169.1203 0143516 231.1266 249.1749  1.00281755 50780
GSAT0101 (GALILEO-PFM)  
1 37846U 11060A   25146.87549418 -.00000085  00000+0  00000+0 0  9992
2 37846  57.0978 352.2326 0003571  39.9931 320.0684  1.70475675 84534
GSAT0102 (GALILEO-FM2)  
1 37847U 11060B   25148.26767135 -.00000091  00000+0  00000+0 0  9993
2 37847  57.0982 352.1951 0003739   7.3418 172.4705  1.70475844 84685
COSMOS 2476 (744)       
1 37867U 11064A   25147.97112466 -.00000019  00000+0  00000+0 0  9997
2 37867  65.0538  85.8981 0023121 240.7168 319.2482  2.13101450105604
COSMOS 2477 (745)       
1 37868U 11064B   25148.56817562 -.00000016  00000+0  00000+0 0  9990
2 37868  65.0609  85.9536 0020280 242.2500 235.6319  2.13102972105555
COSMOS 2475 (743)       
1 37869U 11064C   25148.23428247 -.00000018  00000+0  00000+0 0  9995
2 37869  65.0675  85.9830 0025868 255.4797 283.0794  2.13101789105556
BEIDOU-2 IGSO-5 (C10)   
1 37948U 11073A   25147.81970868 -.00000201  00000+0  00000+0 0  9991
2 37948  48.3820 276.3025 0107118 219.5806 138.4360  1.00292350 49260
LUCH 5A (SDCM/PRN 140)  
1 37951U 11074B   25147.90327466 -.00000052  00000+0  00000+0 0  9990
2 37951   7.7744  79.5759 0002644   1.4701 296.7059  1.00271070 49185
BEIDOU-2 G5 (C05)       
1 38091U 12008A   25147.94878617  .00000056  00000+0  00000+0 0  9990
2 38091   2.6148  71.2688 0009631 266.1437 308.6404  1.00275341 48509
BEIDOU-2 M3 (C11)       
1 38250U 12018A   25147.11774676 -.00000080  00000+0  00000+0 0  9995
2 38250  56.0844 317.8559 0020525 269.2139  90.5328  1.86233535 88752
BEIDOU-2 M4 (C12)       
1 38251U 12018B   25148.12359821 -.00000081  00000+0  00000+0 0  9990
2 38251  55.9868 317.0672 0011447 271.6134  88.2350  1.86231953 89123
SES-5 (EGNOS/PRN 136)   
1 38652U 12036A   25148.15891252  .00000034  00000+0  00000+0 0  9994
2 38652   0.0382 319.5812 0001778 101.0845 247.4649  1.00269430 47204
BEIDOU-2 M6 (C14)       
1 38775U 12050B   25148.37077600 -.00000049  00000+0  00000+0 0  9990
2 38775  56.2045  75.6527 0014264 346.0094  13.9310  1.86230911 86494
GSAT-10 (GAGAN/PRN 128) 
1 38779U 12051B   25147.88882878 -.00000163  00000+0  00000+0 0  9998
2 38779   0.0664 265.7878 0007789 183.9119 198.9520  1.00270340 46234
GPS BIIF-3  (PRN 24)    
1 38833U 12053A   25146.92255021  .00000075  00000+0  00000+0 0  9990
2 38833  53.5365 159.4163 0165034  60.4266 301.2475  2.00562662 91692
GSAT0103 (GALILEO-FM3)  
1 38857U 12055A   25146.32845004  .00000024  00000+0  00000+0 0  9992
2 38857  55.5789 112.1719 0005657 290.3600  69.5264  1.70473429 78416
BEIDOU-2 G6 (C02)       
1 38953U 12059A   25147.88900255 -.00000174  00000+0  00000+0 0  9992
2 38953   3.4431  77.5185 0009808 316.6611 255.4962  1.00268065 46042
LUCH 5B (SDCM/PRN 125)  
1 38977U 12061A   25147.01239591 -.00000138  00000+0  00000+0 0  9994
2 38977   9.6461  53.6003 0002314 125.6518  53.8108  1.00271566 45739
COSMOS 2485 (747)       
1 39155U 13019A   25147.64963377 -.00000019  00000+0  00000+0 0  9990
2 39155  65.2079  86.5641 0023438 236.5071 123.2436  2.13104491 94063
GPS BIIF-4  (PRN 27)    
1 39166U 13023A   25147.78299023 -.00000048  00000+0  00000+0 0  9994
2 39166  54.8164 284.6470 0133181  47.9558 313.1461  2.00561103 88150
IRNSS-1A                
1 39199U 13034A   25147.85600484  .00000054  00000+0  00000+0 0  9993
2 39199  34.8655  69.4207 0017875 183.6608 355.6352  1.00272564 43780
GPS BIIF-5  (PRN 30)    
1 39533U 14008A   25147.78236292  .00000064  00000+0  00000+0 0  9992
2 39533  53.6140 165.0332 0078577 225.5039 133.8937  2.00562347 81950
ASTRA 5B (EGNOS/PRN 123)
1 39617U 14011B   25147.91945050  .00000138  00000+0  00000+0 0  9995
2 39617   0.0571 317.5859 0002224  75.7771 206.8580  1.00269943 41001
COSMOS 2492 (754)       
1 39620U 14012A   25148.07608274 -.00000057  00000+0  00000+0 0  9993
2 39620  65.5155 326.9970 0011187 328.8471  31.0869  2.13103149 87035
IRNSS-1B                
1 39635U 14017A   25145.92342541  .00000104  00000+0  00000+0 0  9999
2 39635  29.1871 247.0108 0022340 181.8827 202.3535  1.00272344 40911
LUCH 5V (SDCM/PRN 141)  
1 39727U 14023A   25147.89108767 -.00000269  00000+0  00000+0 0  9999
2 39727   4.1692  73.4055 0001639  25.0719 202.7148  1.00274603558644
GPS BIIF-6  (PRN 06)    
1 39741U 14026A   25147.06516562 -.00000083  00000+0  00000+0 0  9997
2 39741  56.6520 346.5323 0035100 320.3552  39.4163  2.00575544 80797
COSMOS 2500 (755)       
1 40001U 14032A   25146.84311856 -.00000053  00000+0  00000+0 0  9996
2 40001  65.4523 326.8168 0006139 183.4817 176.5185  2.13105892 85228
GPS BIIF-7  (PRN 09)    
1 40105U 14045A   25148.14951331 -.00000007  00000+0  00000+0 0  9997
2 40105  55.1085 103.8252 0028737 116.3185 243.9330  2.00559708 79241
GSAT0201 (GALILEO 5)    
1 40128U 14050A   25146.42418761 -.00000076  00000+0  00000+0 0  9998
2 40128  49.2978 289.2071 1630483 164.4933 201.1807  1.85519566 71148
GSAT0202 (GALILEO 6)    
1 40129U 14050B   25147.22016268 -.00000073  00000+0  00000+0 0  9991
2 40129  49.3128 288.2563 1630591 165.2999 200.0920  1.85520203 73329
IRNSS-1C                
1 40269U 14061A   25147.88874190 -.00000160  00000+0  00000+0 0  9993
2 40269   5.5376  96.7251 0021723   4.9627 186.8641  1.00268098 38966
GPS BIIF-8  (PRN 03)    
1 40294U 14068A   25148.01802314 -.00000077  00000+0  00000+0 0  9990
2 40294  56.7068  45.8318 0060561  66.0143 294.6497  2.00552481 77473
